COSMOS 2426 (717)       
1 29671U 06062B   20078.32319050  .00000059  00000-0  10000-3 0  9997
2 29671  64.9991 270.9904 0019741 169.7757  53.1812  2.12962359102956
COSMOS 2433 (720)       
1 32275U 07052A   20078.15968542 -.00000062  00000-0  10000-3 0  9993
2 32275  65.9535  31.9610 0004773 275.9491 274.8518  2.13104309 96465
COSMOS 2432 (719)       
1 32276U 07052B   20077.71521578 -.00000060  00000-0  10000-3 0  9997
2 32276  65.9663  32.0645 0012652 324.7303 195.4715  2.13103655 96457
COSMOS 2434 (721)       
1 32393U 07065A   20077.36801704  .00000059  00000-0  00000-0 0  9997
2 32393  64.6054 269.5776 0005207  83.6927 107.2303  2.13102887 95156
COSMOS 2436 (723)       
1 32395U 07065C   20078.43199584  .00000058  00000-0  10000-3 0  9997
2 32395  64.6181 269.5903 0015319   7.9917  55.4515  2.13102954 95114
COSMOS 2456 (730)       
1 36111U 09070A   20077.50748782 -.00000028  00000-0  00000-0 0  9996
2 36111  64.2192 149.2406 0004410 311.8923 159.4229  2.13102761 79821
COSMOS 2457 (733)       
1 36112U 09070B   20077.78948307 -.00000027  00000-0  00000+0 0  9990
2 36112  64.2006 149.1284 0005215 174.5569 276.8145  2.13101429 79835
COSMOS 2459 (731)       
1 36400U 10007A   20077.10923418 -.00000059  00000-0  10000-3 0  9994
2 36400  65.8585  30.9797 0027139 346.3530 333.6593  2.13105124 78166
COSMOS 2461 (735)       
1 36401U 10007B   20077.61562478 -.00000061  00000-0  10000-3 0  9999
2 36401  65.8498  30.9331 0006118  43.2622 214.3776  2.13102006 78178
COSMOS 2460 (732)       
1 36402U 10007C   20077.41131095 -.00000060  00000-0  10000-3 0  9994
2 36402  65.8406  30.8985 0002356 301.5315 198.6790  2.13101435 78176
COSMOS 2464 (736)       
1 37139U 10041C   20077.06722265  .00000058  00000-0  00000-0 0  9998
2 37139  64.2092 269.0736 0027774  14.5216 169.9389  2.13100711 74234
COSMOS 2474 (742)       
1 37829U 11055A   20077.61971934 -.00000028  00000-0  00000+0 0  9997
2 37829  64.5382 150.2251 0009654 246.3586 166.2320  2.13101693 65820
COSMOS 2476 (744)       
1 37867U 11064A   20078.41301679 -.00000025  00000-0  00000+0 0  9998
2 37867  64.5179 150.2414 0019939 239.0735 108.3288  2.13101915 65185
COSMOS 2477 (745)       
1 37868U 11064B   20077.85293116 -.00000028  00000-0  00000+0 0  9995
2 37868  64.5268 150.3196 0017770 241.2004 215.0633  2.13101493 65134
COSMOS 2475 (743)       
1 37869U 11064C   20077.20064745 -.00000028  00000-0  00000+0 0  9999
2 37869  64.5328 150.3384 0021630 262.0771  11.0902  2.13101843 65124
COSMOS 2485 (747)       
1 39155U 13019A   20077.57631178 -.00000028  00000-0  00000+0 0  9991
2 39155  64.6863 150.5191 0020406 234.5421 235.5768  2.13101856 53644
COSMOS 2492 (754)       
1 39620U 14012A   20078.48769149 -.00000067  00000-0  10000-3 0  9991
2 39620  65.7299  30.6599 0015874 321.8409 162.5618  2.13103304 46617
COSMOS 2500 (755)       
1 40001U 14032A   20077.30499211 -.00000061  00000-0  00000+0 0  9997
2 40001  65.6714  30.6213 0006462 228.6461 289.1804  2.13102642 44807
COSMOS 2501 (702K)      
1 40315U 14075A   20077.42933455  .00000057  00000-0  00000+0 0  9992
2 40315  63.9271 270.0419 0014793 204.4775 204.4565  2.13098599 41219
COSMOS 2514 (751)       
1 41330U 16008A   20078.03634238 -.00000065  00000-0  00000+0 0  9993
2 41330  65.4735  30.4915 0010113 228.8940 312.2492  2.13103050 31983
COSMOS 2516 (753)       
1 41554U 16032A   20077.50410240  .00000058  00000-0  00000+0 0  9995
2 41554  64.1511 270.0838 0010238 214.6538 168.8879  2.13101743 29583
COSMOS 2522 (752)       
1 42939U 17055A   20078.35474602  .00000057  00000-0  00000+0 0  9994
2 42939  64.3778 270.2070 0005056 251.0472 291.6430  2.13101987 19354
COSMOS 2527 (756)       
1 43508U 18053A   20077.22792141 -.00000028  00000-0  00000-0 0  9992
2 43508  64.8502 150.3596 0008070 236.3417 193.5480  2.13102468 13626
COSMOS 2529 (757)       
1 43687U 18086A   20077.41477741  .00000059  00000-0  00000+0 0  9995
2 43687  64.6019 270.3405 0007890 281.2170 215.9739  2.13101752 10641
COSMOS 2534 (758)       
1 44299U 19030A   20077.57600998  .00000059  00000-0  00000+0 0  9994
2 44299  64.6666 270.1377 0011684 299.2991  96.6770  2.13101974  6292
